0 RADUGA 9
1 12618U 81069A   13281.58992467 -.00000377  00000-0  10000-3 0   912
2 12618 014.5106 343.3248 0003817 111.8595 248.1895 01.00289307 81863
0 RADUGA 9
1 12618U 81069A   13282.58700058 -.00000380  00000-0  10000-3 0   921
2 12618 014.5100 343.3150 0004241 113.6915 246.3627 01.00288897 81874
0 RADUGA 9
1 12618U 81069A   13286.57533532 -.00000389  00000-0  10000-3 0   935
2 12618 014.5084 343.2738 0004257 113.7554 246.2881 01.00286830 81914
0 RADUGA 9
1 12618U 81069A   13290.56379978  .00000000  00000-0  10000-3 0   941
2 12618 014.5067 343.2311 0003666 115.0161 245.0115 01.00280516 81950
0 RADUGA 9
1 12618U 81069A   13294.55226522 -.00000384  00000-0  10000-3 0   946
2 12618 014.5051 343.1898 0004263 116.7856 243.2207 01.00282512 81999
